{"fetched_at":"2026-03-30T13:17:50Z","count":15418,"tles":[{"name":"STARLINK-31770","line1":"1 59601U 24080A   26087.87593293  .00000990  00000+0  45495-4 0  9992","line2":"2 59601  43.0031 289.8398 0000994 270.3420  89.7317 15.27586547108678","category":"Starlink"}]}