{
  "norad_id": 59601,
  "name": "STARLINK-31770",
  "history": [
    {
      "epoch": "2026-03-28T21:01:20.605152Z",
      "apogee_km": 483.71149198570765,
      "perigee_km": 482.34749208709036,
      "latitude_deg": -5.107365535031329e-05,
      "longitude_deg": 148.21379592961034,
      "height_km": 482.8021266494835,
      "semi_major_axis_km": 6861.166492036398,
      "eccentricity": 9.94e-05,
      "inclination_deg": 43.0031,
      "raan_deg": 289.8398,
      "arg_perigee_deg": 270.342,
      "mean_anomaly_deg": 89.7317,
      "mean_motion_rev_day": 15.27586547
    }
  ]
}